#aV2016  1  1  0  0  0.00000000     288 DD+AD WGS84 FIT  NGA
## 1877 432000.00000000   300.00000000 57388 0.0000000000000
+   31     1  2  3  5  6  7  8  9 10 11 12 13 14 15 16 17 18
+         19 20 21 22 23 24 25 26 27 28 29 30 31 32  0  0  0
+          0  0  0  0  0  0  0  0  0  0  0  0  0  0  0  0  0
+          0  0  0  0  0  0  0  0  0  0  0  0  0  0  0  0  0
+          0  0  0  0  0  0  0  0  0  0  0  0  0  0  0  0  0
++         2  2  2  2  2  2  2  2  2  2  2  2  2  2  2  2  2
++         2  2  2  2  2  2  2  2  2  2  2  2  2  2  0  0  0
++         0  0  0  0  0  0  0  0  0  0  0  0  0  0  0  0  0
++         0  0  0  0  0  0  0  0  0  0  0  0  0  0  0  0  0
++         0  0  0  0  0  0  0  0  0  0  0  0  0  0  0  0  0
%c cc cc ccc ccc cccc cccc cccc cccc ccccc ccccc ccccc ccccc
%c cc cc ccc ccc cccc cccc cccc cccc ccccc ccccc ccccc ccccc
%f  0.0000000  0.000000000  0.00000000000  0.000000000000000
%f  0.0000000  0.000000000  0.00000000000  0.000000000000000
%i    0    0    0    0      0      0      0      0         0
%i    0    0    0    0      0      0      0      0         0
/*      NGA, ST. LOUIS,MO.                                  
/*   EPHEMERIS COMPUTED FROM 2 DAYS OF DATA                 
/*   EPOCHA v2.4 SMOOTHER                                   
/*   G1762 IERS2010 SATAF SATAPC                            
*  2016  1  1  6  0  0.00000000
P  1  13876.818833 -21323.794772   7163.148861      8.034266                    
V  1   -862.705052   9611.065673  30175.245426      0.009367                    
P  2 -16061.401174    380.212725 -20681.551846    598.698519                    
V  2   8117.023240 -26126.189065  -7076.291597      0.004569                    
P  3  18799.105262 -12670.352874 -13856.327359     -5.573258                    
V  3  17720.394262   -437.041982  24429.962798     -0.051400                    
P  5 -26387.646373   1658.673436  -3545.649198   -159.590781                    
V  5   3856.787432  -3732.426335 -30869.901735      0.035890                    
P  6  -9962.509297 -13647.030212 -20491.268495    121.769951                    
V  6  10316.111861 -23901.892334  10891.273715      0.063145                    
P  7   4372.930120 -24750.583297   8078.009854    475.404817                    
V  7   6420.332850  -8345.237158 -29895.046692     -0.013901                    
P  8  15027.395978  -5090.942033  21354.821500    -18.355716                    
V  8  16500.421179  21360.240026  -6532.287128     -0.014526                    
P  9  -4247.934861 -21741.753264 -14663.156393     40.629120                    
V  9  13398.722131  13095.235037 -23332.218121      0.079534                    
P 10  13390.119580  11870.042270  19648.145473     48.171190                    
V 10 -24448.257849   5014.679134  13590.495562      0.022009                    
P 11  11504.042161 -18946.829317  14038.231104   -624.861308                    
V 11   3473.461962  19038.068988  22057.262583     -0.019731                    
P 12 -21244.355501  10156.060252 -12171.547684    357.661126                    
V 12 -15416.539984   -167.491598  27215.496714      0.028309                    
P 13 -18059.082567  -4773.138675  18708.988145   -175.369578                    
V 13 -11644.745354 -21077.931505 -16587.625643     -0.026310                    
P 14  14607.535503  22276.466900    638.424219     11.939676                    
V 14  -2402.505095   1019.537965  31736.882685     -0.023393                    
P 15 -13391.668802   8614.882841  21162.107031   -290.042026                    
V 15 -17986.035549 -20453.697685  -2694.496261     -0.019021                    
P 16  26481.339675    452.626859  -3962.725668    -52.261844                    
V 16  -4722.362206   1901.510016 -31634.358281      0.033574                    
P 17 -14771.228220 -22172.774973   1589.173994   -197.915306                    
V 17   2711.477152     25.464606  31848.070377     -0.007794                    
P 18   1086.184852  16260.394986  21474.736014    468.496987                    
V 18 -25901.672964   4264.409439  -2243.295240      0.037850                    
P 19 -11829.886221 -23147.683479   4053.185258   -524.157607                    
V 19   5331.581728   3059.120153  31717.371927     -0.002537                    
P 20 -20362.171248  13113.668341  10814.857513    382.514641                    
V 20 -14418.389111    -83.345541 -26585.834913      0.027393                    
P 21    254.042408  24093.200387  11554.730107   -502.765923                    
V 21  -7637.372834  11850.231144 -26503.317835     -0.021407                    
P 22  20090.346618   8392.487972  15567.701678    415.967870                    
V 22 -18646.185713   5938.542953  21006.595675     -0.035413                    
P 23   7285.656299 -14696.938733 -20638.249334   -152.669116                    
V 23  17522.690722  20223.242411  -8576.906511     -0.019681                    
P 24 -14755.109497  19592.505253   9913.022986    -10.091973                    
V 24   1657.338314 -12950.908817  28125.958280     -0.005191                    
P 25  -8823.377449  15006.511301 -20103.788754    -92.130220                    
V 25 -25181.404070   2769.053645  13359.537401     -0.062508                    
P 26  22199.002048   5957.513273 -13330.439905   -191.334584                    
V 26 -16377.966758   4814.931999 -25081.882589     -0.170384                    
P 27  19623.458548   5839.271651  16973.359705     49.404316                    
V 27  12293.503850  17725.996565 -20149.998382      0.033892                    
P 28 -12000.521433 -12704.562749  20657.349118    492.252689                    
V 28  24605.219100  -2478.974280  13122.550620      0.026783                    
P 29    786.190649  20621.403421 -16724.526862    650.279445                    
V 29 -13528.192727 -16417.128329 -20818.902101      0.012797                    
P 30  -3340.793621 -20408.288937  16619.732635     78.600291                    
V 30  10891.238336 -18250.034058 -20295.124461      0.049496                    
P 31  10579.188173  11801.098055 -21129.360298    288.913959                    
V 31 -11469.563419  24617.368022   8309.826801     -0.015929                    
P 32  25315.150662  -5230.960209  -4762.808359     66.215409                    
V 32   6303.113569   3208.104218  30989.818180      0.123165                    
EOF
